{
  "norad_id": 65112,
  "name": "HULIANWANG DIGUI-55",
  "history": [
    {
      "epoch": "2026-03-28T21:39:46.132128Z",
      "apogee_km": 1157.9803356358307,
      "perigee_km": 1140.6561984369573,
      "latitude_deg": 7.677969586189582e-06,
      "longitude_deg": 102.21429310490855,
      "height_km": 1157.2011061299927,
      "semi_major_axis_km": 7527.455267036394,
      "eccentricity": 0.00115073,
      "inclination_deg": 49.9985,
      "raan_deg": 253.4729,
      "arg_perigee_deg": 211.6569,
      "mean_anomaly_deg": 148.3612,
      "mean_motion_rev_day": 13.29322902
    },
    {
      "epoch": "2026-03-29T04:52:48.163872Z",
      "apogee_km": 1157.9922753209112,
      "perigee_km": 1140.642997874481,
      "latitude_deg": 1.4745667464673606e-05,
      "longitude_deg": -7.419267675721664,
      "height_km": 1157.1367152886864,
      "semi_major_axis_km": 7527.454636597696,
      "eccentricity": 0.0011524,
      "inclination_deg": 49.9985,
      "raan_deg": 252.3942,
      "arg_perigee_deg": 212.5824,
      "mean_anomaly_deg": 147.4338,
      "mean_motion_rev_day": 13.29323069
    },
    {
      "epoch": "2026-03-30T04:20:09.804192Z",
      "apogee_km": 1157.9939395480196,
      "perigee_km": 1140.641650754238,
      "latitude_deg": 5.884584857525208e-05,
      "longitude_deg": -3.728302394587629,
      "height_km": 1156.8925666264784,
      "semi_major_axis_km": 7527.454795151129,
      "eccentricity": 0.0011526,
      "inclination_deg": 49.9986,
      "raan_deg": 248.8886,
      "arg_perigee_deg": 215.4817,
      "mean_anomaly_deg": 144.529,
      "mean_motion_rev_day": 13.29323027
    },
    {
      "epoch": "2026-03-30T06:08:25.316448Z",
      "apogee_km": 1157.9940938765503,
      "perigee_km": 1140.6415039758722,
      "latitude_deg": -2.4737156890597397e-06,
      "longitude_deg": -31.136788237672185,
      "height_km": 1156.8730278028531,
      "semi_major_axis_km": 7527.454798926211,
      "eccentricity": 0.00115262,
      "inclination_deg": 49.9986,
      "raan_deg": 248.6189,
      "arg_perigee_deg": 215.7049,
      "mean_anomaly_deg": 144.3053,
      "mean_motion_rev_day": 13.29323026
    },
    {
      "epoch": "2026-03-30T13:21:27.355968Z",
      "apogee_km": 1157.9993778984845,
      "perigee_km": 1140.6360991513193,
      "latitude_deg": -1.799903949225746e-05,
      "longitude_deg": -140.7704000871744,
      "height_km": 1156.7991148932517,
      "semi_major_axis_km": 7527.454738524902,
      "eccentricity": 0.00115333,
      "inclination_deg": 49.9986,
      "raan_deg": 247.5402,
      "arg_perigee_deg": 216.5801,
      "mean_anomaly_deg": 143.4284,
      "mean_motion_rev_day": 13.29323042
    },
    {
      "epoch": "2026-03-30T22:22:44.898240Z",
      "apogee_km": 1158.0070949622177,
      "perigee_km": 1140.6272571133313,
      "latitude_deg": -3.676223093472658e-05,
      "longitude_deg": 82.18769041938488,
      "height_km": 1156.7008091532825,
      "semi_major_axis_km": 7527.454176037774,
      "eccentricity": 0.00115443,
      "inclination_deg": 49.9985,
      "raan_deg": 246.1919,
      "arg_perigee_deg": 217.72,
      "mean_anomaly_deg": 142.2863,
      "mean_motion_rev_day": 13.29323191
    },
    {
      "epoch": "2026-03-31T20:01:51.009024Z",
      "apogee_km": 1158.0238156767937,
      "perigee_km": 1140.6098040330753,
      "latitude_deg": 3.220753295842557e-05,
      "longitude_deg": 113.28708403294628,
      "height_km": 1156.456780185417,
      "semi_major_axis_km": 7527.453809854935,
      "eccentricity": 0.0011567,
      "inclination_deg": 49.9985,
      "raan_deg": 242.9559,
      "arg_perigee_deg": 220.4061,
      "mean_anomaly_deg": 139.5953,
      "mean_motion_rev_day": 13.29323288
    },
    {
      "epoch": "2026-04-01T19:29:12.625152Z",
      "apogee_km": 1158.0376983196238,
      "perigee_km": 1140.5950833224133,
      "latitude_deg": 8.894415113915447e-06,
      "longitude_deg": 116.9780947282253,
      "height_km": 1156.1716564610338,
      "semi_major_axis_km": 7527.453390821019,
      "eccentricity": 0.0011586,
      "inclination_deg": 49.9985,
      "raan_deg": 239.4503,
      "arg_perigee_deg": 223.3165,
      "mean_anomaly_deg": 136.6797,
      "mean_motion_rev_day": 13.29323399
    },
    {
      "epoch": "2026-04-02T18:56:34.246464Z",
      "apogee_km": 1158.0503589298205,
      "perigee_km": 1140.5821509064572,
      "latitude_deg": 1.7113607656583424e-05,
      "longitude_deg": 120.66890963955858,
      "height_km": 1155.8699778592334,
      "semi_major_axis_km": 7527.453254918139,
      "eccentricity": 0.0011603,
      "inclination_deg": 49.9985,
      "raan_deg": 235.9445,
      "arg_perigee_deg": 226.2124,
      "mean_anomaly_deg": 133.7789,
      "mean_motion_rev_day": 13.29323435
    },
    {
      "epoch": "2026-04-02T22:33:05.260608Z",
      "apogee_km": 1158.0500981470832,
      "perigee_km": 1140.5818907281919,
      "latitude_deg": 3.6621513488926496e-05,
      "longitude_deg": 65.85219987758781,
      "height_km": 1155.8196724637417,
      "semi_major_axis_km": 7527.452994437637,
      "eccentricity": 0.0011603,
      "inclination_deg": 49.9985,
      "raan_deg": 235.4052,
      "arg_perigee_deg": 226.6654,
      "mean_anomaly_deg": 133.3252,
      "mean_motion_rev_day": 13.29323504
    },
    {
      "epoch": "2026-04-03T20:12:11.375712Z",
      "apogee_km": 1158.0535368398942,
      "perigee_km": 1140.5778027217302,
      "latitude_deg": 2.7996722355765994e-05,
      "longitude_deg": 96.95150938909232,
      "height_km": 1155.5197416812612,
      "semi_major_axis_km": 7527.452669780811,
      "eccentricity": 0.0011608,
      "inclination_deg": 49.9986,
      "raan_deg": 232.1692,
      "arg_perigee_deg": 229.3318,
      "mean_anomaly_deg": 130.6546,
      "mean_motion_rev_day": 13.2932359
    },
    {
      "epoch": "2026-04-04T19:39:33.008256Z",
      "apogee_km": 1158.0641659808298,
      "perigee_km": 1140.5673547845963,
      "latitude_deg": 6.356036612492831e-06,
      "longitude_deg": 100.6423508696996,
      "height_km": 1155.176577127367,
      "semi_major_axis_km": 7527.452760382713,
      "eccentricity": 0.0011622,
      "inclination_deg": 49.9986,
      "raan_deg": 228.6635,
      "arg_perigee_deg": 232.2901,
      "mean_anomaly_deg": 127.6918,
      "mean_motion_rev_day": 13.29323566
    },
    {
      "epoch": "2026-04-05T13:42:08.095392Z",
      "apogee_km": 1158.0777576000773,
      "perigee_km": 1140.5523437357124,
      "latitude_deg": 1.9505995745909333e-06,
      "longitude_deg": -173.44145335810268,
      "height_km": 1154.908629526952,
      "semi_major_axis_km": 7527.452050667895,
      "eccentricity": 0.0011641,
      "inclination_deg": 49.9987,
      "raan_deg": 225.9669,
      "arg_perigee_deg": 234.5372,
      "mean_anomaly_deg": 125.4414,
      "mean_motion_rev_day": 13.29323754
    },
    {
      "epoch": "2026-04-05T19:06:54.625248Z",
      "apogee_km": 1158.0783705047725,
      "perigee_km": 1140.551451475224,
      "latitude_deg": 3.596625233132633e-05,
      "longitude_deg": 104.33349930742804,
      "height_km": 1154.821688217341,
      "semi_major_axis_km": 7527.4519109899975,
      "eccentricity": 0.0011642,
      "inclination_deg": 49.9988,
      "raan_deg": 225.158,
      "arg_perigee_deg": 235.2344,
      "mean_anomaly_deg": 124.7433,
      "mean_motion_rev_day": 13.29323791
    },
    {
      "epoch": "2026-04-06T04:08:12.169248Z",
      "apogee_km": 1158.085633708326,
      "perigee_km": 1140.5438107638602,
      "latitude_deg": 2.1749423788163156e-05,
      "longitude_deg": -32.7084148365451,
      "height_km": 1154.6820343986292,
      "semi_major_axis_km": 7527.451722236093,
      "eccentricity": 0.00116519,
      "inclination_deg": 49.9988,
      "raan_deg": 223.8097,
      "arg_perigee_deg": 236.3692,
      "mean_anomaly_deg": 123.6069,
      "mean_motion_rev_day": 13.29323841
    },
    {
      "epoch": "2026-04-07T14:25:06.830400Z",
      "apogee_km": 1158.107230247745,
      "perigee_km": 1140.5205456402073,
      "latitude_deg": 3.2770995081092036e-05,
      "longitude_deg": 166.53243018482033,
      "height_km": 1154.1333904510889,
      "semi_major_axis_km": 7527.450887943976,
      "eccentricity": 0.00116817,
      "inclination_deg": 49.9989,
      "raan_deg": 218.6862,
      "arg_perigee_deg": 240.65,
      "mean_anomaly_deg": 119.3206,
      "mean_motion_rev_day": 13.29324062
    },
    {
      "epoch": "2026-04-07T19:49:53.353344Z",
      "apogee_km": 1158.106495454428,
      "perigee_km": 1140.5208651750781,
      "latitude_deg": 1.0359253188850206e-05,
      "longitude_deg": 84.30736436266562,
      "height_km": 1154.0408720965254,
      "semi_major_axis_km": 7527.450680314753,
      "eccentricity": 0.0011681,
      "inclination_deg": 49.9989,
      "raan_deg": 217.8773,
      "arg_perigee_deg": 241.3357,
      "mean_anomaly_deg": 118.6341,
      "mean_motion_rev_day": 13.29324117
    },
    {
      "epoch": "2026-04-08T13:52:28.430112Z",
      "apogee_km": 1158.1222117622447,
      "perigee_km": 1140.5046656574705,
      "latitude_deg": 4.773481620024364e-05,
      "longitude_deg": 170.2236372345792,
      "height_km": 1153.7418441310933,
      "semi_major_axis_km": 7527.450438709857,
      "eccentricity": 0.00117022,
      "inclination_deg": 49.9989,
      "raan_deg": 215.1807,
      "arg_perigee_deg": 243.5832,
      "mean_anomaly_deg": 116.384,
      "mean_motion_rev_day": 13.29324181
    },
    {
      "epoch": "2026-04-09T20:32:52.053792Z",
      "apogee_km": 1158.14178438832,
      "perigee_km": 1140.4838925572303,
      "latitude_deg": -2.408156677368393e-05,
      "longitude_deg": 64.28133673955374,
      "height_km": 1153.2130033232818,
      "semi_major_axis_km": 7527.449838472775,
      "eccentricity": 0.0011729,
      "inclination_deg": 49.9989,
      "raan_deg": 210.5966,
      "arg_perigee_deg": 247.4142,
      "mean_anomaly_deg": 112.5489,
      "mean_motion_rev_day": 13.2932434
    }
  ]
}